From: horizons@ssd.jpl.nasa.gov (Horizons Ephemeris System)
Subject: [Horizons] SMALL BODY #C(500@10)_T(ATLAS (P/2019 M2)) (1/1)
Date: March 1, 2021 at 1:23:20 PM PST

Automated mail xmit by MAIL_REQUEST, PID= 2301 Mon Mar  1 13:23:20 2021
++++++++++++++++++++++++++++++++ (part 1 of 1)  +++++++++++++++++++++++++++++++
*******************************************************************************
JPL/HORIZONS                  ATLAS (P/2019 M2)            2021-Mar-01 13:23:20
Rec #:90004443 (+COV) Soln.date: 2020-May-20_00:55:28     # obs: 291 (126 days)

IAU76/J2000 helio. ecliptic osc. elements (au, days, deg., period=Julian yrs):

 EPOCH=  2458703.5 ! 2019-Aug-08.0000000 (TDB)    RMSW= n.a.
  EC= .6485364711823028   QR= 1.063395120030158   TP= 2458657.1678594332
  OM= 307.6033076884789   W= 332.5206265906124    IN= 12.28205649194148
  A= 3.025620108030433    MA= 8.67690499838616    ADIST= 4.987845096030707
  PER= 5.2629568707472    N= .187276147           ANGMOM= .022776031
  DAN= 1.11279            DDN= 4.12838            L= 280.6633927
  B= -5.6330653           MOID= .0772178          TP= 2019-Jun-22.6678594332

Comet physical (GM= km^3/s^2; RAD= km):
  GM= n.a.                RAD= n.a.
  M1=  20.7     M2=  n.a.     k1=  4.5    k2= n.a.     PHCOF= n.a.

COMET comments 
1: soln ref.= JPL#7, data arc: 2019-06-29 to 2019-11-02
2: k1=4.5;
*******************************************************************************


*******************************************************************************
Ephemeris / MAIL_REQUEST Mon Mar  1 13:23:20 2021 Pasadena, USA  / Horizons
*******************************************************************************
Target body name: ATLAS (P/2019 M2)               {source: JPL#7}
Center body name: Sun (10)                        {source: DE431}
Center-site name: BODY CENTER
*******************************************************************************
Start time      : A.D. 1990-Jan-01 00:00:00.0000 TDB
Stop  time      : A.D. 2020-Dec-31 00:00:00.0000 TDB
Step-size       : 10080 minutes
*******************************************************************************
Center geodetic : 0.00000000,0.00000000,0.0000000 {E-lon(deg),Lat(deg),Alt(km)}
Center cylindric: 0.00000000,0.00000000,0.0000000 {E-lon(deg),Dxy(km),Dz(km)}
Center radii    : 696000.0 x 696000.0 x 696000.0 k{Equator, meridian, pole}    
Small perturbers: Yes                             {source: SB431-N16}
Output units    : AU-D
Output type     : GEOMETRIC cartesian states
Output format   : 6 (LT, range, and range-rate)
Reference frame : Ecliptic of J2000.0
*******************************************************************************
Initial IAU76/J2000 heliocentric ecliptic osculating elements (au, days, deg.):
 EPOCH=  2458703.5 ! 2019-Aug-08.0000000 (TDB)    RMSW= n.a.                  
  EC= .6485364711823028   QR= 1.063395120030158   TP= 2458657.1678594332      
  OM= 307.6033076884789   W= 332.5206265906124    IN= 12.28205649194148       
 Equivalent ICRF heliocentric equatorial cartesian coordinates (au, au/d):
  X= 1.038388374381412E+00  Y=-6.288723999577623E-01  Z=-1.708201696466634E-01
 VX= 1.470911224139211E-02 VY= 9.622783552400154E-03 VZ= 8.717590360523251E-03
Comet physical (GM= km^3/s^2; RAD= km):                                        
  GM= n.a.                RAD= n.a.                                           
  M1=  20.7     M2=  n.a.     k1=  4.5    k2= n.a.     PHCOF= n.a.            
*******************************************************************************
           JDTDB,            Calendar Date (TDB),                     LT,                     RG,                     RR,
**************************************************************************************************************************
$$SOE
2452092.500000000, A.D. 2001-Jul-02 00:00:00.0000,  2.822325014830625E-02,  4.886704279801685E+00, -1.360408829588171E-03,
2452099.500000000, A.D. 2001-Jul-09 00:00:00.0000,  2.816713330170696E-02,  4.876987949010416E+00, -1.415712428418472E-03,
2452106.500000000, A.D. 2001-Jul-16 00:00:00.0000,  2.810877731115901E-02,  4.866883922462647E+00, -1.471180338679015E-03,
2452113.500000000, A.D. 2001-Jul-23 00:00:00.0000,  2.804817537294490E-02,  4.856391022131219E+00, -1.526820590393878E-03,
2452120.500000000, A.D. 2001-Jul-30 00:00:00.0000,  2.798532036034755E-02,  4.845508014063316E+00, -1.582640802456644E-03,
2452127.500000000, A.D. 2001-Aug-06 00:00:00.0000,  2.792020488012859E-02,  4.834233618159399E+00, -1.638646472673496E-03,
2452134.500000000, A.D. 2001-Aug-13 00:00:00.0000,  2.785282133184745E-02,  4.822566518443971E+00, -1.694842928676989E-03,
2452141.500000000, A.D. 2001-Aug-20 00:00:00.0000,  2.778316186558315E-02,  4.810505355745357E+00, -1.751237148903449E-03,
2452148.500000000, A.D. 2001-Aug-27 00:00:00.0000,  2.771121833253823E-02,  4.798048719143007E+00, -1.807836743867112E-03,
2452155.500000000, A.D. 2001-Sep-03 00:00:00.0000,  2.763698227631551E-02,  4.785195144457139E+00, -1.864649281560518E-03,
2452162.500000000, A.D. 2001-Sep-10 00:00:00.0000,  2.756044493662234E-02,  4.771943114890103E+00, -1.921682237738522E-03,
2452169.500000000, A.D. 2001-Sep-17 00:00:00.0000,  2.748159725155227E-02,  4.758291061421430E+00, -1.978943070354080E-03,
2452176.500000000, A.D. 2001-Sep-24 00:00:00.0000,  2.740042985678924E-02,  4.744237362670062E+00, -2.036439294032320E-03,
2452183.500000000, A.D. 2001-Oct-01 00:00:00.0000,  2.731693308163493E-02,  4.729780344206485E+00, -2.094178569668690E-03,
2452190.500000000, A.D. 2001-Oct-08 00:00:00.0000,  2.723109694013005E-02,  4.714918277015448E+00, -2.152168871216166E-03,
2452197.500000000, A.D. 2001-Oct-15 00:00:00.0000,  2.714291111267220E-02,  4.699649374313184E+00, -2.210418784849772E-03,
2452204.500000000, A.D. 2001-Oct-22 00:00:00.0000,  2.705236491850493E-02,  4.683971786784042E+00, -2.268937483196719E-03,
2452211.500000000, A.D. 2001-Oct-29 00:00:00.0000,  2.695944731953006E-02,  4.667883603240565E+00, -2.327733084709353E-03,
2452218.500000000, A.D. 2001-Nov-05 00:00:00.0000,  2.686414698987481E-02,  4.651382862668673E+00, -2.386812000728581E-03,
2452225.500000000, A.D. 2001-Nov-12 00:00:00.0000,  2.676645233057667E-02,  4.634467556770262E+00, -2.446181740734510E-03,
2452232.500000000, A.D. 2001-Nov-19 00:00:00.0000,  2.666635140382636E-02,  4.617135618577730E+00, -2.505851372605717E-03,
2452239.500000000, A.D. 2001-Nov-26 00:00:00.0000,  2.656383189299661E-02,  4.599384915533169E+00, -2.565830445061247E-03,
2452246.500000000, A.D. 2001-Dec-03 00:00:00.0000,  2.645888109261005E-02,  4.581213247751370E+00, -2.626128634627432E-03,
2452253.500000000, A.D. 2001-Dec-10 00:00:00.0000,  2.635148590328147E-02,  4.562618347144093E+00, -2.686755761449507E-03,
2452260.500000000, A.D. 2001-Dec-17 00:00:00.0000,  2.624163282467674E-02,  4.543597876200942E+00, -2.747721849837482E-03,
2452267.500000000, A.D. 2001-Dec-24 00:00:00.0000,  2.612930794609998E-02,  4.524149426359591E+00, -2.809037186817279E-03,
2452274.500000000, A.D. 2001-Dec-31 00:00:00.0000,  2.601449693422532E-02,  4.504270515881593E+00, -2.870712414877070E-03,
2452281.500000000, A.D. 2002-Jan-07 00:00:00.0000,  2.589718501504991E-02,  4.483958586727659E+00, -2.932758741209998E-03,
2452288.500000000, A.D. 2002-Jan-14 00:00:00.0000,  2.577735694460061E-02,  4.463210999485650E+00, -2.995188241578633E-03,
2452295.500000000, A.D. 2002-Jan-21 00:00:00.0000,  2.565499697887125E-02,  4.442025028165410E+00, -3.058013317122539E-03,
2452302.500000000, A.D. 2002-Jan-28 00:00:00.0000,  2.553008890121150E-02,  4.420397864940967E+00, -3.121244689634032E-03,
2452309.500000000, A.D. 2002-Feb-04 00:00:00.0000,  2.540261608692932E-02,  4.398326631336127E+00, -3.184892357349242E-03,
2452316.500000000, A.D. 2002-Feb-11 00:00:00.0000,  2.527256147511635E-02,  4.375808373346178E+00, -3.248968028280616E-03,
2452323.500000000, A.D. 2002-Feb-18 00:00:00.0000,  2.513990750425489E-02,  4.352840050288592E+00, -3.313484557891255E-03,
2452330.500000000, A.D. 2002-Feb-25 00:00:00.0000,  2.500463608518737E-02,  4.329418530122823E+00, -3.378455126532225E-03,
2452337.500000000, A.D. 2002-Mar-04 00:00:00.0000,  2.486672859259402E-02,  4.305540587974721E+00, -3.443893076899275E-03,
2452344.500000000, A.D. 2002-Mar-11 00:00:00.0000,  2.472616585800864E-02,  4.281202904927249E+00, -3.509811943232234E-03,
2452351.500000000, A.D. 2002-Mar-18 00:00:00.0000,  2.458292816118450E-02,  4.256402066525529E+00, -3.576225494909432E-03,
2452358.500000000, A.D. 2002-Mar-25 00:00:00.0000,  2.443699521961810E-02,  4.231134560962943E+00, -3.643147788945208E-03,
2452365.500000000, A.D. 2002-Apr-01 00:00:00.0000,  2.428834617491325E-02,  4.205396776720145E+00, -3.710593288045361E-03,
2452372.500000000, A.D. 2002-Apr-08 00:00:00.0000,  2.413695957135284E-02,  4.179184998854877E+00, -3.778577140959436E-03,
2452379.500000000, A.D. 2002-Apr-15 00:00:00.0000,  2.398281332208787E-02,  4.152495403147783E+00, -3.847115389822999E-03,
2452386.500000000, A.D. 2002-Apr-22 00:00:00.0000,  2.382588469149903E-02,  4.125324053048406E+00, -3.916223692881847E-03,
2452393.500000000, A.D. 2002-Apr-29 00:00:00.0000,  2.366615035117486E-02,  4.097666909367515E+00, -3.985915769964347E-03,
2452400.500000000, A.D. 2002-May-06 00:00:00.0000,  2.350358642125748E-02,  4.069519837435889E+00, -4.056205696969572E-03,
2452407.500000000, A.D. 2002-May-13 00:00:00.0000,  2.333816841778337E-02,  4.040878597986659E+00, -4.127109196187985E-03,
2452414.500000000, A.D. 2002-May-20 00:00:00.0000,  2.316987120385908E-02,  4.011738838701640E+00, -4.198642694914991E-03,
2452421.500000000, A.D. 2002-May-27 00:00:00.0000,  2.299866897395762E-02,  3.982096091492339E+00, -4.270822811480782E-03,
2452428.500000000, A.D. 2002-Jun-03 00:00:00.0000,  2.282453524817737E-02,  3.951945771505922E+00, -4.343666290957783E-03,
2452435.500000000, A.D. 2002-Jun-10 00:00:00.0000,  2.264744286668163E-02,  3.921283176162434E+00, -4.417190029024444E-03,
